ONEWEB-0412             
1 50489U 21132W   24022.27531233  .00000070  00000+0  14565-3 0  9991
2 50489  87.9244 149.9574 0001712 122.1814 237.9485 13.18686518106081
ONEWEB-0413             
1 50490U 21132X   24022.35593223  .00000121  00000+0  27373-3 0  9997
2 50490  87.9242 149.9554 0001926 115.2574 244.8758 13.18684864107322
ONEWEB-0414             
1 50491U 21132Y   24022.79696387 -.00000004  00000+0 -43609-4 0  9994
2 50491  87.9238 149.8523 0001512 120.6782 239.4500 13.18684130107416
ONEWEB-0417             
1 50492U 21132Z   24022.42548976  .00000048  00000+0  89612-4 0  9995
2 50492  87.9246 149.9183 0001227 101.1693 258.9577 13.18685450107345
ONEWEB-0418             
1 50493U 21132AA  24022.81831962  .00000005  00000+0 -20898-4 0  9994
2 50493  87.9241 149.8509 0000983 101.3024 258.8218 13.18686548107441
ONEWEB-0419             
1 50494U 21132AB  24022.83174256  .00000057  00000+0  11078-3 0  9998
2 50494  87.9238 149.8694 0001343  92.0056 268.1230 13.18684640107376
ONEWEB-0420             
1 50495U 21132AC  24022.79855697  .00000000  00000+0 -32157-4 0  9990
2 50495  87.9238 149.8843 0001948 109.3232 250.8111 13.18687736107377
ONEWEB-0421             
1 50496U 21132AD  24022.41284579 -.00000086  00000+0 -25027-3 0  9997
2 50496  87.9246 149.9151 0001566 122.2810 237.8474 13.18685008107368
